#aV2015  8 22  0  0  0.00000000     288 DD+AD WGS84 FIT  NGA
## 1858 518400.00000000   300.00000000 57256 0.0000000000000
+   31     1  2  3  4  5  6  7  8  9 11 12 13 14 15 16 17 18
+         19 20 21 22 23 24 25 26 27 28 29 30 31 32  0  0  0
+          0  0  0  0  0  0  0  0  0  0  0  0  0  0  0  0  0
+          0  0  0  0  0  0  0  0  0  0  0  0  0  0  0  0  0
+          0  0  0  0  0  0  0  0  0  0  0  0  0  0  0  0  0
++         2  2  2  2  2  2  2  2  2  2  2  2  2  2  2  2  2
++         2  2  2  2  2  2  2  2  2  2  2  2  2  2  0  0  0
++         0  0  0  0  0  0  0  0  0  0  0  0  0  0  0  0  0
++         0  0  0  0  0  0  0  0  0  0  0  0  0  0  0  0  0
++         0  0  0  0  0  0  0  0  0  0  0  0  0  0  0  0  0
%c cc cc ccc ccc cccc cccc cccc cccc ccccc ccccc ccccc ccccc
%c cc cc ccc ccc cccc cccc cccc cccc ccccc ccccc ccccc ccccc
%f  0.0000000  0.000000000  0.00000000000  0.000000000000000
%f  0.0000000  0.000000000  0.00000000000  0.000000000000000
%i    0    0    0    0      0      0      0      0         0
%i    0    0    0    0      0      0      0      0         0
/*      NGA, ST. LOUIS,MO.                                  
/*   EPHEMERIS COMPUTED FROM  1 DAYS OF DATA                
/*   EPOCHA SMOOTHER                                       
/* CCCCCCCCCCCCCCCCCCCCCCCCCCCCCCCCCCCCCCCCCCCCCCCCCCCCCCCCC
*  2015  8 22 22 40  0.00000000
P  1  10544.510196  13551.013045 -20380.822110     -0.806309                    
V  1 -25570.043797   2471.730308 -11426.313744      0.006319                    
P  2  13642.185434 -14419.553467  17813.581526    585.376281                    
V  2  22201.601485   -152.531002 -17940.650211      0.019147                    
P  3  13146.491017  22903.561014  -2681.310203     17.886215                    
V  3  -4293.300943  -1237.147595 -31498.192649      0.023776                    
P  4    175.904261  15835.486147 -21656.134865    -12.815709                    
V  4 -26708.207420   2038.656505   1556.963144     -0.038709                    
P  5   3427.411724 -18599.905783  18516.344516   -203.637558                    
V  5  14884.194680  18578.398621  16049.973787      0.041790                    
P  6  23743.221253  -7886.656866   8906.090874     43.184845                    
V  6  11462.158381   1720.172916 -29029.382847      0.076741                    
P  7  23366.273193   6712.707305  11265.666838    481.299206                    
V  7 -13881.671359   2473.707953  27225.429590      0.019342                    
P  8  -2659.176138  23822.714308 -11411.716200     -2.672988                    
V  8  -8525.738341  12041.202044  27005.925473     -0.013259                    
P  9  12759.639256   8652.043244  21624.115002    -11.048872                    
V  9 -12189.468917  24632.112721  -2679.919196      0.000790                    
P 11   6133.014776  15760.281409 -21028.904478   -599.571288                    
V 11 -23632.876348  10315.917132    967.499923     -0.024596                    
P 12 -10391.801361 -23990.376910  -5393.067974    321.298791                    
V 12   4849.356207   4839.776474 -31288.012863      0.034224                    
P 13  12406.487850 -23373.285516  -3054.961706   -143.180887                    
V 13   3925.435537  -1885.984928  31640.604514     -0.030179                    
P 14 -18433.189929   8293.569504 -16895.538649     39.925796                    
V 14   9557.707866 -19891.371574 -20047.047099     -0.026156                    
P 15   1033.663005 -23858.148969 -11367.369405   -267.519466                    
V 15   8790.448332 -11982.429106  26488.713552     -0.020657                    
P 16  -4326.668632  17604.166041  19189.943325    -94.565277                    
V 16 -13338.119981 -20702.257293  16270.337348      0.041038                    
P 17  18072.155399  -9884.474816 -16344.771578   -185.112173                    
V 17  -8643.755958  19639.662233 -21255.343901     -0.013577                    
P 18 -19974.228448 -12269.653295 -12242.712140    427.711650                    
V 18  -6858.457426 -15142.024140  25036.222542      0.032326                    
P 19  -3260.844888  22708.423017 -13242.672730   -518.788038                    
V 19 -10573.028760  12983.093441  25710.705942     -0.006827                    
P 20 -11889.315300 -22790.278412   6357.392465    349.154132                    
V 20   8154.683663   4172.403748  29597.133108      0.031219                    
P 21 -24867.115924  -4715.455467   9301.228131   -474.053362                    
V 21  10485.303000  -3798.591468  27944.726415     -0.029222                    
P 22 -17515.036997   1092.272870 -19741.917424    383.964715                    
V 22 -13712.736608 -21770.839375  10655.628439      0.039419                    
P 23   3986.476163  19817.680702  17160.766945   -128.778685                    
V 23 -11549.329047  18486.257585 -19285.163925     -0.022674                    
P 24  -7559.647487 -14383.790895 -21068.617209     -3.441193                    
V 24  26519.723189  -2939.678787  -7369.732798     -0.005478                    
P 25 -17837.346884 -18652.834988   6522.387388    -28.855433                    
V 25  -2974.485747  -8079.913794 -30600.911170     -0.048834                    
P 26 -11957.722623   9453.320704  21743.190633    -33.245010                    
V 26 -15613.830588 -22791.864475   1326.268261     -0.090148                    
P 27 -11902.865843  23663.264062    562.622444     13.910435                    
V 27  -2097.562050  -1848.504112  31983.616393      0.028844                    
P 28  17200.993633   4791.232567 -19072.934322    462.380160                    
V 28  11755.833373  22611.607633  15696.387402      0.026993                    
P 29 -10452.729733 -11398.176602  21612.251895    629.595359                    
V 29  13703.335737 -23687.345576  -5828.498449      0.023578                    
P 30  26600.516052    370.470019    359.937905     11.000295                    
V 30   -473.765152   2923.122862  31575.128268      0.070326                    
P 31 -23642.397931   7624.697399   9985.927346    305.493282                    
V 31 -12423.655361  -1400.300030 -28389.369904     -0.012832                    
P 32   2266.765705  23291.189388 -13096.274622    -64.948573                    
V 32  -9945.520989 -13217.490084 -24761.958582      0.107102                    
EOF
